CAS-2T & KS-1Q          
1 41847U 16066G   21109.89624341  .00000197  00000-0  39448-4 0  9992
2 41847  98.6072 168.7618 0365942  35.3343 327.1513 14.38176241233462
NAYIF-1 (EO-88)         
1 42017U 17008BX  21109.75512514  .00003775  00000-0  14139-3 0  9996
2 42017  97.3196 178.4038 0004800 331.5931  28.5046 15.27877488232299
ZHUHAI-1 02 (CAS-4B)    
1 42759U 17034B   21110.16091278  .00000568  00000-0  47500-4 0  9990
2 42759  43.0161 141.5425 0008142 166.7374 299.7535 15.10160077212334
ZHUHAI-1 01 (CAS-4A)    
1 42761U 17034D   21110.15507821  .00000570  00000-0  47566-4 0  9993
2 42761  43.0164 140.6692 0009011 169.0833 297.1427 15.10241346212339
MAX VALIER SAT          
1 42778U 17036P   21110.11203110  .00002297  00000-0  99158-4 0  9995
2 42778  97.2615 160.6210 0012592  30.6809 329.5162 15.23430001212407
RADFXSAT (FOX-1B)       
1 43017U 17073E   21109.96803197  .00000991  00000-0  80810-4 0  9999
2 43017  97.7107  16.2686 0256375 130.9647 231.4060 14.79437212184475
FOX-1D (AO-92)          
1 43137U 18004AC  21109.74436694  .00002629  00000-0  10793-3 0  9999
2 43137  97.4093 184.3739 0010327  64.1210 296.1091 15.25058756181714
DIWATA-2B               
1 43678U 18084H   21110.09667286 -.00000012  00000-0  45305-5 0  9994
2 43678  97.9143 235.1063 0008425 240.8808 119.1601 14.91730208134734
ES'HAIL 2               
1 43700U 18090A   21109.85033368  .00000145  00000-0  00000-0 0  9991
2 43700   0.0134 254.5727 0002476 165.2115 120.2873  1.00272995  8787
FOX-1CLIFF (AO-95)      
1 43770U 18099N   21109.89683228  .00000432  00000-0  44385-4 0  9994
2 43770  97.6688 181.3678 0013018 251.4439 108.5368 14.95267767129706
ITASAT 1                
1 43786U 18099AE  21110.16221063  .00000465  00000-0  47030-4 0  9994
2 43786  97.6706 182.2648 0013702 243.0081 116.9741 14.95570394129779
JY1SAT (JO-97)          
1 43803U 18099AX  21109.93478549  .00000964  00000-0  91430-4 0  9997
2 43803  97.6663 181.8011 0013776 243.1288 116.8525 14.95800392129741
UWE-4                   
1 43880U 18111E   21110.02454805  .00001286  00000-0  11726-3 0  9995
2 43880  97.6903  18.7457 0010721 304.7755  55.2457 14.96807673124346
PSAT2 (NO-104)          
1 44354U 19036R   21109.79086173  .00019765  00000-0  26548-3 0  9999
2 44354  28.5275 157.7434 0330955   0.7114 359.3905 15.12099593100087
BRICSAT2 (NO-103)       
1 44355U 19036S   21109.36214964  .00044985  00000-0  51333-3 0  9996
2 44355  28.5233 124.5620 0276395  54.8225 307.7935 15.26333661100386
JAISAT-1                
1 44419U 19038F   21109.87040075  .00001851  00000-0  10630-3 0  9995
2 44419  97.5831  74.8163 0021832 150.2574 209.9903 15.13595013 98930
DUCHIFAT-3              
1 44854U 19089C   21110.19393690  .00000727  00000-0  64600-4 0  9993
2 44854  36.9649  85.1509 0008023  19.4483 340.6571 14.99426972 74352
RS-44 & BREEZE-KM R/B   
1 44909U 19096E   21109.83358828  .00000006  00000-0 -14452-4 0  9996
2 44909  82.5202 151.7657 0216532 229.9547 128.2384 12.79709639 61329
ORBITAL FACTORY 2 (OF-2)
1 45113U 19071C   21110.02918020  .00004723  00000-0  14620-3 0  9991
2 45113  51.6428 320.7064 0012746  83.4927 276.7507 15.35347883 68192
HUSKYSAT-1 (HO-107)     
1 45119U 19071J   21109.84687984  .00005501  00000-0  16814-3 0  9999
2 45119  51.6428 320.9865 0012044  79.7460 280.4880 15.35405368 68166
BY70-2                  
1 45857U 20042B   21110.24631591  .00001468  00000-0  21612-3 0  9997
2 45857  97.9850 186.6009 0012307  49.1534 311.0767 14.76862415 42957
SALSAT                  
1 46495U 20068K   21109.89190282  .00000913  00000-0  71504-4 0  9990
2 46495  97.6896  47.7490 0015379 270.9629  88.9835 15.03419674 30538
BY70-3                  
1 46839U 20079N   21110.17092455  .00005035  00000-0  15875-3 0  9998
2 46839  97.2426 185.1887 0008745  63.4332 352.9682 15.33293071 25270
RADFXSAT-2 (AO-109)     
1 47311U 21002C   21109.80799993  .00001431  00000-0  74724-4 0  9995
2 47311  60.6835 150.7029 0027332  12.7856 347.3917 15.21457557 13949
UVSQ-SAT                
1 47438U 21006AB  21109.85440876  .00001508  00000-0  89014-4 0  9990
2 47438  97.4927 172.1144 0011315 304.5907  55.4256 15.13006193 13195
